{
    "links": {
        "self": "http://www.neowsapp.com/rest/v1/neo/3831736?api_key=iIulBulltgU6a56xZRHN4H3l9WmuAYTsLGpBGhQ2"
    },
    "id": "3831736",
    "neo_reference_id": "3831736",
    "name": "(2018 TD5)",
    "designation": "2018 TD5",
    "nasa_jpl_url": "http://ssd.jpl.nasa.gov/sbdb.cgi?sstr=3831736",
    "absolute_magnitude_h": 24.4,
    "estimated_diameter": {
        "kilometers": {
            "estimated_diameter_min": 0.0350392641,
            "estimated_diameter_max": 0.0783501764
        },
        "meters": {
            "estimated_diameter_min": 35.0392641108,
            "estimated_diameter_max": 78.3501764334
        },
        "miles": {
            "estimated_diameter_min": 0.0217723826,
            "estimated_diameter_max": 0.0486845275
        },
        "feet": {
            "estimated_diameter_min": 114.9582192654,
            "estimated_diameter_max": 257.0543928497
        }
    },
    "is_potentially_hazardous_asteroid": false,
    "close_approach_data": [
        {
            "close_approach_date": "2014-04-15",
            "close_approach_date_full": "2014-Apr-15 01:51",
            "epoch_date_close_approach": 1397526660000,
            "relative_velocity": {
                "kilometers_per_second": "26.2077848717",
                "kilometers_per_hour": "94348.0255382802",
                "miles_per_hour": "58624.1939796053"
            },
            "miss_distance": {
                "astronomical": "0.3670807693",
                "lunar": "142.7944192577",
                "kilometers": "54914501.205241391",
                "miles": "34122288.7773815558"
            },
            "orbiting_body": "Earth"
        },
        {
            "close_approach_date": "2018-10-05",
            "close_approach_date_full": "2018-Oct-05 06:37",
            "epoch_date_close_approach": 1538721420000,
            "relative_velocity": {
                "kilometers_per_second": "16.3224926963",
                "kilometers_per_hour": "58760.9737066094",
                "miles_per_hour": "36511.7839123096"
            },
            "miss_distance": {
                "astronomical": "0.029346478",
                "lunar": "11.415779942",
                "kilometers": "4390170.60080186",
                "miles": "2727925.515751268"
            },
            "orbiting_body": "Earth"
        },
        {
            "close_approach_date": "2077-05-04",
            "close_approach_date_full": "2077-May-04 11:03",
            "epoch_date_close_approach": 3387351780000,
            "relative_velocity": {
                "kilometers_per_second": "14.9818392305",
                "kilometers_per_hour": "53934.6212297053",
                "miles_per_hour": "33512.8761746466"
            },
            "miss_distance": {
                "astronomical": "0.1297463475",
                "lunar": "50.4713291775",
                "kilometers": "19409777.226279825",
                "miles": "12060676.307418585"
            },
            "orbiting_body": "Earth"
        },
        {
            "close_approach_date": "2081-10-26",
            "close_approach_date_full": "2081-Oct-26 07:33",
            "epoch_date_close_approach": 3528689580000,
            "relative_velocity": {
                "kilometers_per_second": "27.6155945888",
                "kilometers_per_hour": "99416.1405195374",
                "miles_per_hour": "61773.3235355981"
            },
            "miss_distance": {
                "astronomical": "0.3949797857",
                "lunar": "153.6471366373",
                "kilometers": "59088134.633776459",
                "miles": "36715664.3334507742"
            },
            "orbiting_body": "Earth"
        }
    ],
    "orbital_data": {
        "orbit_id": "8",
        "orbit_determination_date": "2018-11-12 06:57:26",
        "first_observation_date": "2018-10-10",
        "last_observation_date": "2018-10-28",
        "data_arc_in_days": 18,
        "observations_used": 68,
        "orbit_uncertainty": "8",
        "minimum_orbit_intersection": ".0261395",
        "jupiter_tisserand_invariant": "4.089",
        "epoch_osculation": "2458406.5",
        "eccentricity": ".5356639292063955",
        "semi_major_axis": "1.640605203560137",
        "inclination": "14.57015201308091",
        "ascending_node_longitude": "197.6007580850649",
        "orbital_period": "767.5462494580884",
        "perihelion_distance": ".7617921739446556",
        "perihelion_argument": "101.6777032661276",
        "aphelion_distance": "2.519418233175618",
        "perihelion_time": "2458348.009354753698",
        "mean_anomaly": "27.43369836480259",
        "mean_motion": ".4690271110752886",
        "equinox": "J2000",
        "orbit_class": {
            "orbit_class_type": "APO",
            "orbit_class_description": "Near-Earth asteroid orbits which cross the Earth’s orbit similar to that of 1862 Apollo",
            "orbit_class_range": "a (semi-major axis) > 1.0 AU; q (perihelion) < 1.017 AU"
        }
    },
    "is_sentry_object": false
}